{
  "norad_id": 59413,
  "name": "STARLINK-31615",
  "history": [
    {
      "epoch": "2026-03-28T21:41:54.132864Z",
      "apogee_km": 483.70932712186186,
      "perigee_km": 482.3919790924647,
      "latitude_deg": -3.2315063553416955e-08,
      "longitude_deg": 148.99099003655934,
      "height_km": 482.7727525570992,
      "semi_major_axis_km": 6861.187653107163,
      "eccentricity": 9.6e-05,
      "inclination_deg": 43.0029,
      "raan_deg": 300.7844,
      "arg_perigee_deg": 274.7508,
      "mean_anomaly_deg": 85.3234,
      "mean_motion_rev_day": 15.2757948
    },
    {
      "epoch": "2026-03-28T21:41:54.133728Z",
      "apogee_km": 483.7096015693678,
      "perigee_km": 482.39170464495874,
      "latitude_deg": 3.1021830125472175e-06,
      "longitude_deg": 148.99098976912657,
      "height_km": 482.7727298301692,
      "semi_major_axis_km": 6861.187653107163,
      "eccentricity": 9.604e-05,
      "inclination_deg": 43.0029,
      "raan_deg": 300.7844,
      "arg_perigee_deg": 274.7508,
      "mean_anomaly_deg": 85.3234,
      "mean_motion_rev_day": 15.2757948
    }
  ]
}